[{"OBJECT_NAME":"STARLINK-33712","OBJECT_ID":"2025-091Y","EPOCH":"2025-05-07T22:00:01.999584","MEAN_MOTION":15.90816939,"ECCENTRICITY":0.0001697,"INCLINATION":43.0012,"RA_OF_ASC_NODE":348.7695,"ARG_OF_PERICENTER":267.7779,"MEAN_ANOMALY":357.9075,"EPHEMERIS_TYPE":0,"CLASSIFICATION_TYPE":"U","NORAD_CAT_ID":63797,"ELEMENT_SET_NO":999,"REV_AT_EPOCH":203,"BSTAR":-0.0060855,"MEAN_MOTION_DOT":-0.01717135,"MEAN_MOTION_DDOT":0},{"OBJECT_NAME":"STARLINK-33827","OBJECT_ID":"2025-091Z","EPOCH":"2025-05-08T06:00:02.000160","MEAN_MOTION":15.94397604,"ECCENTRICITY":0.0001798,"INCLINATION":43.0006,"RA_OF_ASC_NODE":346.6523,"ARG_OF_PERICENTER":243.5187,"MEAN_ANOMALY":151.1894,"EPHEMERIS_TYPE":0,"CLASSIFICATION_TYPE":"U","NORAD_CAT_ID":63798,"ELEMENT_SET_NO":999,"REV_AT_EPOCH":207,"BSTAR":-0.002582,"MEAN_MOTION_DOT":-0.01009106,"MEAN_MOTION_DDOT":0.0003146},{"OBJECT_NAME":"STARLINK-33899","OBJECT_ID":"2025-091AA","EPOCH":"2025-05-08T04:00:00.999936","MEAN_MOTION":15.94626247,"ECCENTRICITY":0.0001893,"INCLINATION":43.001,"RA_OF_ASC_NODE":347.1698,"ARG_OF_PERICENTER":263.2635,"MEAN_ANOMALY":14.1219,"EPHEMERIS_TYPE":0,"CLASSIFICATION_TYPE":"U","NORAD_CAT_ID":63799,"ELEMENT_SET_NO":999,"REV_AT_EPOCH":217,"BSTAR":-0.0024383,"MEAN_MOTION_DOT":-0.00965114,"MEAN_MOTION_DDOT":0.0002907},{"OBJECT_NAME":"STARLINK-33900","OBJECT_ID":"2025-091AB","EPOCH":"2025-05-08T04:00:00.999936","MEAN_MOTION":15.9472578,"ECCENTRICITY":0.0002125,"INCLINATION":43.0007,"RA_OF_ASC_NODE":347.165,"ARG_OF_PERICENTER":266.6051,"MEAN_ANOMALY":12.5346,"EPHEMERIS_TYPE":0,"CLASSIFICATION_TYPE":"U","NORAD_CAT_ID":63800,"ELEMENT_SET_NO":999,"REV_AT_EPOCH":217,"BSTAR":-0.0024281,"MEAN_MOTION_DOT":-0.0096627,"MEAN_MOTION_DDOT":0.00029162},{"OBJECT_NAME":"STARLINK-33975","OBJECT_ID":"2025-091AC","EPOCH":"2025-05-08T04:00:00.999936","MEAN_MOTION":15.94827917,"ECCENTRICITY":0.0002107,"INCLINATION":43.0007,"RA_OF_ASC_NODE":347.1605,"ARG_OF_PERICENTER":266.5613,"MEAN_ANOMALY":14.312,"EPHEMERIS_TYPE":0,"CLASSIFICATION_TYPE":"U","NORAD_CAT_ID":63802,"ELEMENT_SET_NO":999,"REV_AT_EPOCH":217,"BSTAR":-0.0024315,"MEAN_MOTION_DOT":-0.00972894,"MEAN_MOTION_DDOT":0.00029558},{"OBJECT_NAME":"STARLINK-33951","OBJECT_ID":"2025-091AD","EPOCH":"2025-05-08T04:00:00.999936","MEAN_MOTION":15.94929694,"ECCENTRICITY":0.0001822,"INCLINATION":43.0009,"RA_OF_ASC_NODE":347.1568,"ARG_OF_PERICENTER":260.8653,"MEAN_ANOMALY":21.7094,"EPHEMERIS_TYPE":0,"CLASSIFICATION_TYPE":"U","NORAD_CAT_ID":63803,"ELEMENT_SET_NO":999,"REV_AT_EPOCH":211,"BSTAR":-0.0024315,"MEAN_MOTION_DOT":-0.00978141,"MEAN_MOTION_DDOT":0.0002988},{"OBJECT_NAME":"STARLINK-33909","OBJECT_ID":"2025-092A","EPOCH":"2025-05-07T18:00:02.000160","MEAN_MOTION":15.9692753,"ECCENTRICITY":0.0001893,"INCLINATION":43.0009,"RA_OF_ASC_NODE":112.3877,"ARG_OF_PERICENTER":253.4058,"MEAN_ANOMALY":251.4178,"EPHEMERIS_TYPE":0,"CLASSIFICATION_TYPE":"U","NORAD_CAT_ID":63804,"ELEMENT_SET_NO":999,"REV_AT_EPOCH":168,"BSTAR":-0.0016997,"MEAN_MOTION_DOT":-0.00764165,"MEAN_MOTION_DDOT":0.00019468},{"OBJECT_NAME":"STARLINK-34029","OBJECT_ID":"2025-092B","EPOCH":"2025-05-07T18:00:02.000160","MEAN_MOTION":15.96995437,"ECCENTRICITY":0.0001505,"INCLINATION":43.0011,"RA_OF_ASC_NODE":112.3863,"ARG_OF_PERICENTER":259.3607,"MEAN_ANOMALY":246.0073,"EPHEMERIS_TYPE":0,"CLASSIFICATION_TYPE":"U","NORAD_CAT_ID":63805,"ELEMENT_SET_NO":999,"REV_AT_EPOCH":168,"BSTAR":-0.0016981,"MEAN_MOTION_DOT":-0.00766246,"MEAN_MOTION_DDOT":0.00019578},{"OBJECT_NAME":"STARLINK-34102","OBJECT_ID":"2025-092C","EPOCH":"2025-05-07T18:00:02.000160","MEAN_MOTION":15.97133468,"ECCENTRICITY":0.000168,"INCLINATION":43.001,"RA_OF_ASC_NODE":112.3845,"ARG_OF_PERICENTER":253.9274,"MEAN_ANOMALY":252.106,"EPHEMERIS_TYPE":0,"CLASSIFICATION_TYPE":"U","NORAD_CAT_ID":63806,"ELEMENT_SET_NO":999,"REV_AT_EPOCH":173,"BSTAR":-0.0016989,"MEAN_MOTION_DOT":-0.00772462,"MEAN_MOTION_DDOT":0.00019895},{"OBJECT_NAME":"STARLINK-34109","OBJECT_ID":"2025-092D","EPOCH":"2025-05-07T18:00:02.000160","MEAN_MOTION":15.97246549,"ECCENTRICITY":0.000151,"INCLINATION":43.0011,"RA_OF_ASC_NODE":112.383,"ARG_OF_PERICENTER":255.7991,"MEAN_ANOMALY":250.855,"EPHEMERIS_TYPE":0,"CLASSIFICATION_TYPE":"U","NORAD_CAT_ID":63807,"ELEMENT_SET_NO":999,"REV_AT_EPOCH":168,"BSTAR":-0.0016977,"MEAN_MOTION_DOT":-0.00776715,"MEAN_MOTION_DDOT":0.00020118},{"OBJECT_NAME":"STARLINK-34091","OBJECT_ID":"2025-092E","EPOCH":"2025-05-07T18:00:02.000160","MEAN_MOTION":15.9739491,"ECCENTRICITY":0.0001601,"INCLINATION":43.0012,"RA_OF_ASC_NODE":112.3813,"ARG_OF_PERICENTER":257.229,"MEAN_ANOMALY":250.1068,"EPHEMERIS_TYPE":0,"CLASSIFICATION_TYPE":"U","NORAD_CAT_ID":63808,"ELEMENT_SET_NO":999,"REV_AT_EPOCH":173,"BSTAR":-0.001698,"MEAN_MOTION_DOT":-0.00783239,"MEAN_MOTION_DDOT":0.00020457},{"OBJECT_NAME":"STARLINK-34095","OBJECT_ID":"2025-092F","EPOCH":"2025-05-07T18:00:02.000160","MEAN_MOTION":15.97523651,"ECCENTRICITY":0.0001591,"INCLINATION":43.0012,"RA_OF_ASC_NODE":112.3797,"ARG_OF_PERICENTER":254.7682,"MEAN_ANOMALY":253.2162,"EPHEMERIS_TYPE":0,"CLASSIFICATION_TYPE":"U","NORAD_CAT_ID":63809,"ELEMENT_SET_NO":999,"REV_AT_EPOCH":168,"BSTAR":-0.0016976,"MEAN_MOTION_DOT":-0.00788639,"MEAN_MOTION_DDOT":0.00020742},{"OBJECT_NAME":"STARLINK-34127","OBJECT_ID":"2025-092G","EPOCH":"2025-05-07T18:00:02.000160","MEAN_MOTION":15.97663071,"ECCENTRICITY":0.0001668,"INCLINATION":43.0011,"RA_OF_ASC_NODE":112.3779,"ARG_OF_PERICENTER":253.2691,"MEAN_ANOMALY":255.3818,"EPHEMERIS_TYPE":0,"CLASSIFICATION_TYPE":"U","NORAD_CAT_ID":63810,"ELEMENT_SET_NO":999,"REV_AT_EPOCH":168,"BSTAR":-0.0016969,"MEAN_MOTION_DOT":-0.00794426,"MEAN_MOTION_DDOT":0.00021049},{"OBJECT_NAME":"STARLINK-34110","OBJECT_ID":"2025-092H","EPOCH":"2025-05-07T18:00:02.000160","MEAN_MOTION":15.97790963,"ECCENTRICITY":0.0001628,"INCLINATION":43.0012,"RA_OF_ASC_NODE":112.3764,"ARG_OF_PERICENTER":254.0661,"MEAN_ANOMALY":255.2314,"EPHEMERIS_TYPE":0,"CLASSIFICATION_TYPE":"U","NORAD_CAT_ID":63811,"ELEMENT_SET_NO":999,"REV_AT_EPOCH":173,"BSTAR":-0.0016962,"MEAN_MOTION_DOT":-0.00799738,"MEAN_MOTION_DDOT":0.00021334},{"OBJECT_NAME":"STARLINK-34101","OBJECT_ID":"2025-092J","EPOCH":"2025-05-07T18:00:02.000160","MEAN_MOTION":15.97933622,"ECCENTRICITY":0.0001714,"INCLINATION":43.0011,"RA_OF_ASC_NODE":112.3748,"ARG_OF_PERICENTER":252.3261,"MEAN_ANOMALY":257.6437,"EPHEMERIS_TYPE":0,"CLASSIFICATION_TYPE":"U","NORAD_CAT_ID":63812,"ELEMENT_SET_NO":999,"REV_AT_EPOCH":157,"BSTAR":-0.001693,"MEAN_MOTION_DOT":-0.00804596,"MEAN_MOTION_DDOT":0.00021602},{"OBJECT_NAME":"STARLINK-34065","OBJECT_ID":"2025-092K","EPOCH":"2025-05-07T18:00:02.000160","MEAN_MOTION":15.98060833,"ECCENTRICITY":0.0001777,"INCLINATION":43.0011,"RA_OF_ASC_NODE":112.3731,"ARG_OF_PERICENTER":251.7279,"MEAN_ANOMALY":258.8871,"EPHEMERIS_TYPE":0,"CLASSIFICATION_TYPE":"U","NORAD_CAT_ID":63813,"ELEMENT_SET_NO":999,"REV_AT_EPOCH":163,"BSTAR":-0.001691,"MEAN_MOTION_DOT":-0.00809362,"MEAN_MOTION_DDOT":0.00021864}]
